SENTINEL-2A             
1 40697U 15028A   20174.36842000 -.00000017  00000-0  10111-4 0  9996
2 40697  98.5688 248.5387 0001167  89.1874 270.9442 14.30818629261167
AVUM R/B                
1 40698U 15028B   20174.38022756  .00000876  00000-0  42481-4 0  9994
2 40698  98.6428 109.5503 0255903   2.2042 358.0241 14.97785760273013
